ONEWEB-0716             
1 55177U 23004AP  25131.79844872  .00000018  00000+0  13503-4 0  9999
2 55177  87.9048  85.8075 0001863  79.0362 281.0979 13.17649459114721
ONEWEB-0717             
1 55178U 23004AQ  25131.40187221 -.00000001  00000+0 -35060-4 0  9992
2 55178  87.9046  85.8458 0002860  85.2240 274.9218 13.17651752114723
ONEWEB-0719             
1 55179U 23004AR  25131.56386921  .00000097  00000+0  21743-3 0  9993
2 55179  87.9046  85.7978 0001973  76.1963 283.9388 13.17651839114695
ONEWEB-0530             
1 55796U 23029A   25131.35220642  .00000059  00000+0  11325-3 0  9992
2 55796  87.9290 354.5003 0002332  77.5949 282.5445 13.20768329108101
ONEWEB-0534             
1 55797U 23029B   25131.86986083  .00000176  00000+0  40152-3 0  9997
2 55797  87.9288 354.4050 0001739  81.2883 278.8447 13.20772861108868
ONEWEB-0556             
1 55798U 23029C   25131.11860497  .00000122  00000+0  26795-3 0  9994
2 55798  87.9289 354.5463 0002013  60.5907 299.5427 13.20772205108075
ONEWEB-0562             
1 55799U 23029D   25131.86355687  .00000166  00000+0  37617-3 0  9990
2 55799  87.9288 354.3913 0002575  67.5135 292.6270 13.20772878108858
ONEWEB-0563             
1 55800U 23029E   25131.55421242  .00000015  00000+0  38355-5 0  9995
2 55800  87.9288 354.4671 0001519  80.4262 279.7043 13.20772839108801
